{
  "type": "FeatureCollection",
  "features": [
    {
      "type": "Feature",
      "properties": {
        "norad_id": 29268,
        "name": "ARIRANG-2 (KOMPSAT-2)",
        "group": "resource",
        "lat": -44.46385726689764,
        "lon": -176.0352312299347,
        "alt_km": 676.0083450353113,
        "timestamp": "2025-12-13T18:50:04.084862+00:00",
        "meta_object_name": "ARIRANG-2 (KOMPSAT-2)",
        "meta_object_id": "2006-031A",
        "meta_epoch": "2025-12-13T08:07:18.053760",
        "meta_mean_motion": 14.64494867,
        "meta_eccentricity": 0.00134952,
        "meta_inclination": 97.8264,
        "meta_ra_of_asc_node": 175.7821,
        "meta_arg_of_pericenter": 307.3171,
        "meta_mean_anomaly": 175.8461,
        "meta_ephemeris_type": 0,
        "meta_classification_type": "U",
        "meta_norad_cat_id": 29268,
        "meta_element_set_no": 999,
        "meta_rev_at_epoch": 3427,
        "meta_bstar": 0.00015288685,
        "meta_mean_motion_dot": 7.66e-06,
        "meta_mean_motion_ddot": 0,
        "tle_line1": "1 29268U 06031A   25347.33840340  .00000766  00000+0  15289-3 0  9999",
        "tle_line2": "2 29268  97.8264 175.7821 0013495 307.3171 175.8461 14.64494867 34271"
      },
      "geometry": {
        "type": "Point",
        "coordinates": [
          -176.0352312299347,
          -44.46385726689764
        ]
      }
    },
    {
      "type": "Feature",
      "properties": {
        "norad_id": 29709,
        "name": "LAPAN-TUBSAT",
        "group": "resource",
        "lat": -30.68506950534545,
        "lon": -17.173588329107222,
        "alt_km": 619.4106164793711,
        "timestamp": "2025-12-13T18:50:04.084873+00:00",
        "meta_object_name": "LAPAN-TUBSAT",
        "meta_object_id": "2007-001A",
        "meta_epoch": "2025-12-13T06:02:33.061056",
        "meta_mean_motion": 14.85670987,
        "meta_eccentricity": 0.00135549,
        "meta_inclination": 98.126,
        "meta_ra_of_asc_node": 337.4187,
        "meta_arg_of_pericenter": 72.5267,
        "meta_mean_anomaly": 287.7428,
        "meta_ephemeris_type": 0,
        "meta_classification_type": "U",
        "meta_norad_cat_id": 29709,
        "meta_element_set_no": 999,
        "meta_rev_at_epoch": 2354,
        "meta_bstar": 0.00012675778,
        "meta_mean_motion_dot": 1.043e-05,
        "meta_mean_motion_ddot": 0,
        "tle_line1": "1 29709U 07001A   25347.25177154  .00001043  00000+0  12676-3 0  9990",
        "tle_line2": "2 29709  98.1260 337.4187 0013554  72.5267 287.7428 14.85670987 23542"
      },
      "geometry": {
        "type": "Point",
        "coordinates": [
          -17.173588329107222,
          -30.68506950534545
        ]
      }
    },
    {
      "type": "Feature",
      "properties": {
        "norad_id": 31113,
        "name": "HAIYANG-1B",
        "group": "resource",
        "lat": 8.667232952026644,
        "lon": -29.260302193030405,
        "alt_km": 781.0726943059117,
        "timestamp": "2025-12-13T18:50:04.084884+00:00",
        "meta_object_name": "HAIYANG-1B",
        "meta_object_id": "2007-010A",
        "meta_epoch": "2025-12-13T05:22:06.685536",
        "meta_mean_motion": 14.3096537,
        "meta_eccentricity": 0.00142431,
        "meta_inclination": 98.3315,
        "meta_ra_of_asc_node": 331.4818,
        "meta_arg_of_pericenter": 36.5718,
        "meta_mean_anomaly": 323.6436,
        "meta_ephemeris_type": 0,
        "meta_classification_type": "U",
        "meta_norad_cat_id": 31113,
        "meta_element_set_no": 999,
        "meta_rev_at_epoch": 97403,
        "meta_bstar": 0.00010171933,
        "meta_mean_motion_dot": 2.26e-06,
        "meta_mean_motion_ddot": 0,
        "tle_line1": "1 31113U 07010A   25347.22368849  .00000226  00000+0  10172-3 0  9993",
        "tle_line2": "2 31113  98.3315 331.4818 0014243  36.5718 323.6436 14.30965370974030"
      },
      "geometry": {
        "type": "Point",
        "coordinates": [
          -29.260302193030405,
          8.667232952026644
        ]
      }
    },
    {
      "type": "Feature",
      "properties": {
        "norad_id": 31598,
        "name": "COSMO-SKYMED 1",
        "group": "resource",
        "lat": -36.49956652292933,
        "lon": 179.07509139921612,
        "alt_km": 586.8405255658236,
        "timestamp": "2025-12-13T18:50:04.084895+00:00",
        "meta_object_name": "COSMO-SKYMED 1",
        "meta_object_id": "2007-023A",
        "meta_epoch": "2025-12-13T07:45:38.061216",
        "meta_mean_motion": 14.95772291,
        "meta_eccentricity": 0.00012687,
        "meta_inclination": 97.8834,
        "meta_ra_of_asc_node": 172.7261,
        "meta_arg_of_pericenter": 89.6071,
        "meta_mean_anomaly": 270.5295,
        "meta_ephemeris_type": 0,
        "meta_classification_type": "U",
        "meta_norad_cat_id": 31598,
        "meta_element_set_no": 999,
        "meta_rev_at_epoch": 199,
        "meta_bstar": 0.00055937833,
        "meta_mean_motion_dot": 6.181e-05,
        "meta_mean_motion_ddot": 0,
        "tle_line1": "1 31598U 07023A   25347.32335719  .00006181  00000+0  55938-3 0  9990",
        "tle_line2": "2 31598  97.8834 172.7261 0001268  89.6071 270.5295 14.95772291  1997"
      },
      "geometry": {
        "type": "Point",
        "coordinates": [
          179.07509139921612,
          -36.49956652292933
        ]
      }
    },
    {
      "type": "Feature",
      "properties": {
        "norad_id": 31698,
        "name": "TERRASAR-X",
        "group": "resource",
        "lat": 65.71529318566371,
        "lon": -23.698132385905268,
        "alt_km": 500.73250495825505,
        "timestamp": "2025-12-13T18:50:04.084916+00:00",
        "meta_object_name": "TERRASAR-X",
        "meta_object_id": "2007-026A",
        "meta_epoch": "2025-12-12T14:05:10.891104",
        "meta_mean_motion": 15.19146945,
        "meta_eccentricity": 0.00019276,
        "meta_inclination": 97.4459,
        "meta_ra_of_asc_node": 351.9708,
        "meta_arg_of_pericenter": 85.8663,
        "meta_mean_anomaly": 274.2792,
        "meta_ephemeris_type": 0,
        "meta_classification_type": "U",
        "meta_norad_cat_id": 31698,
        "meta_element_set_no": 999,
        "meta_rev_at_epoch": 2489,
        "meta_bstar": 0.00011245028,
        "meta_mean_motion_dot": 2.295e-05,
        "meta_mean_motion_ddot": 0,
        "tle_line1": "1 31698U 07026A   25346.58693161  .00002295  00000+0  11245-3 0  9994",
        "tle_line2": "2 31698  97.4459 351.9708 0001927  85.8663 274.2792 15.19146945 24896"
      },
      "geometry": {
        "type": "Point",
        "coordinates": [
          -23.698132385905268,
          65.71529318566371
        ]
      }
    },
    {
      "type": "Feature",
      "properties": {
        "norad_id": 32060,
        "name": "WORLDVIEW-1 (WV-1)",
        "group": "resource",
        "lat": 82.54947483883205,
        "lon": 22.707299794725486,
        "alt_km": 483.6272888939875,
        "timestamp": "2025-12-13T18:50:04.084936+00:00",
        "meta_object_name": "WORLDVIEW-1 (WV-1)",
        "meta_object_id": "2007-041A",
        "meta_epoch": "2025-12-13T07:25:11.755776",
        "meta_mean_motion": 15.24706719,
        "meta_eccentricity": 8.155e-05,
        "meta_inclination": 97.3831,
        "meta_ra_of_asc_node": 104.7817,
        "meta_arg_of_pericenter": 108.8307,
        "meta_mean_anomaly": 251.3019,
        "meta_ephemeris_type": 0,
        "meta_classification_type": "U",
        "meta_norad_cat_id": 32060,
        "meta_element_set_no": 999,
        "meta_rev_at_epoch": 1456,
        "meta_bstar": 0.00053291404,
        "meta_mean_motion_dot": 0.00013123,
        "meta_mean_motion_ddot": 0,
        "tle_line1": "1 32060U 07041A   25347.30916384  .00013123  00000+0  53291-3 0  9990",
        "tle_line2": "2 32060  97.3831 104.7817 0000815 108.8307 251.3019 15.24706719 14562"
      },
      "geometry": {
        "type": "Point",
        "coordinates": [
          22.707299794725486,
          82.54947483883205
        ]
      }
    },
    {
      "type": "Feature",
      "properties": {
        "norad_id": 32289,
        "name": "YAOGAN-3",
        "group": "resource",
        "lat": 29.18834675930359,
        "lon": -161.18706475100242,
        "alt_km": 596.7423499119459,
        "timestamp": "2025-12-13T18:50:04.084947+00:00",
        "meta_object_name": "YAOGAN-3",
        "meta_object_id": "2007-055A",
        "meta_epoch": "2025-12-13T08:29:25.573344",
        "meta_mean_motion": 14.89863391,
        "meta_eccentricity": 0.00012435,
        "meta_inclination": 97.8368,
        "meta_ra_of_asc_node": 13.9732,
        "meta_arg_of_pericenter": 78.3934,
        "meta_mean_anomaly": 281.7423,
        "meta_ephemeris_type": 0,
        "meta_classification_type": "U",
        "meta_norad_cat_id": 32289,
        "meta_element_set_no": 999,
        "meta_rev_at_epoch": 97818,
        "meta_bstar": 0.00044415608,
        "meta_mean_motion_dot": 4.214e-05,
        "meta_mean_motion_ddot": 0,
        "tle_line1": "1 32289U 07055A   25347.35376821  .00004214  00000+0  44416-3 0  9999",
        "tle_line2": "2 32289  97.8368  13.9732 0001243  78.3934 281.7423 14.89863391978188"
      },
      "geometry": {
        "type": "Point",
        "coordinates": [
          -161.18706475100242,
          29.18834675930359
        ]
      }
    }
  ]
}